{
  "type": "FeatureCollection",
  "features": [
    {
      "type": "Feature",
      "id": "ranch-boundary",
      "geometry": {
        "type": "Polygon",
        "coordinates": [
          [
            [
              -23.47836685766009,
              65.83533972144038
            ],
            [
              -23.47660048848451,
              65.83851289545056
            ],
            [
              -23.4766211366401,
              65.84258692996497
            ],
            [
              -23.47461604005233,
              65.84603158297959
            ],
            [
              -23.4783078251326,
              65.84860276344713
            ],
            [
              -23.48252266498568,
              65.85037309601533
            ],
            [
              -23.48775125374842,
              65.85179378626799
            ],
            [
              -23.49746795292235,
              65.85613215178294
            ],
            [
              -23.51794360865924,
              65.85365202995804
            ],
            [
              -23.51194858182263,
              65.85152938061077
            ],
            [
              -23.5054215506632,
              65.84946938732074
            ],
            [
              -23.50103640134715,
              65.84716451176898
            ],
            [
              -23.50010051358349,
              65.8447621107219
            ],
            [
              -23.50010457861172,
              65.84209493266299
            ],
            [
              -23.50455023005861,
              65.83901533813675
            ],
            [
              -23.48276501799054,
              65.83397227032836
            ],
            [
              -23.47836685766009,
              65.83533972144038
            ]
          ]
        ]
      },
      "properties": {
        "featureRole": "ranch_boundary",
        "name": "Bakki Ranch",
        "sourceFeatureName": "Unbenanntes Polygon"
      }
    },
    {
      "type": "Feature",
      "id": "zone-1",
      "geometry": {
        "type": "Polygon",
        "coordinates": [
          [
            [
              -23.50046023072747,
              65.84184856510089
            ],
            [
              -23.50455023005861,
              65.83901533813675
            ],
            [
              -23.48276501799054,
              65.83397227032836
            ],
            [
              -23.47836685766009,
              65.83533972144038
            ],
            [
              -23.47674179801856,
              65.83825904152975
            ],
            [
              -23.50046023072747,
              65.84184856510089
            ]
          ]
        ]
      },
      "properties": {
        "featureRole": "zone_boundary",
        "zoneName": "Zone 1",
        "zoneCode": "ZONE-1",
        "sourceFeatureName": "Zone 1"
      }
    },
    {
      "type": "Feature",
      "id": "zone-2",
      "geometry": {
        "type": "Polygon",
        "coordinates": [
          [
            [
              -23.500166025726948,
              65.8449302787952
            ],
            [
              -23.50010051358349,
              65.8447621107219
            ],
            [
              -23.50010425340946,
              65.8423083069077
            ],
            [
              -23.476602140336958,
              65.83883881821171
            ],
            [
              -23.4766211366401,
              65.84258692996497
            ],
            [
              -23.476180015390792,
              65.84334475362819
            ],
            [
              -23.500166025726948,
              65.8449302787952
            ]
          ]
        ]
      },
      "properties": {
        "featureRole": "zone_boundary",
        "zoneName": "Zone 2",
        "zoneCode": "ZONE-2",
        "sourceFeatureName": "Zone 2"
      }
    },
    {
      "type": "Feature",
      "id": "zone-3",
      "geometry": {
        "type": "Polygon",
        "coordinates": [
          [
            [
              -23.50098024808133,
              65.84702036770615
            ],
            [
              -23.500222178992765,
              65.84507442285802
            ],
            [
              -23.476059709595525,
              65.84355143280906
            ],
            [
              -23.47461604005233,
              65.84603158297959
            ],
            [
              -23.478086318027785,
              65.84844849261908
            ],
            [
              -23.50098024808133,
              65.84702036770615
            ]
          ]
        ]
      },
      "properties": {
        "featureRole": "zone_boundary",
        "zoneName": "Zone 3",
        "zoneCode": "ZONE-3",
        "sourceFeatureName": "Zone 3"
      }
    },
    {
      "type": "Feature",
      "id": "zone-4",
      "geometry": {
        "type": "Polygon",
        "coordinates": [
          [
            [
              -23.50515844170424,
              65.84933109478763
            ],
            [
              -23.50103640134715,
              65.84716451176898
            ],
            [
              -23.50129951030611,
              65.84730280430209
            ],
            [
              -23.478560715523784,
              65.84870898340122
            ],
            [
              -23.48252266498568,
              65.85037309601533
            ],
            [
              -23.487437538422657,
              65.85170854485283
            ],
            [
              -23.50515844170424,
              65.84933109478763
            ]
          ]
        ]
      },
      "properties": {
        "featureRole": "zone_boundary",
        "zoneName": "Zone 4",
        "zoneCode": "ZONE-4",
        "sourceFeatureName": "Zone 4"
      }
    },
    {
      "type": "Feature",
      "id": "zone-5",
      "geometry": {
        "type": "Polygon",
        "coordinates": [
          [
            [
              -23.51794360865924,
              65.85365202995804
            ],
            [
              -23.51194858182263,
              65.85152938061077
            ],
            [
              -23.505813172532765,
              65.84959298691814
            ],
            [
              -23.488334255698856,
              65.85205408819888
            ],
            [
              -23.48775125374842,
              65.85179378626799
            ],
            [
              -23.49746795292235,
              65.85613215178294
            ],
            [
              -23.51794360865924,
              65.85365202995804
            ]
          ]
        ]
      },
      "properties": {
        "featureRole": "zone_boundary",
        "zoneName": "Zone 5",
        "zoneCode": "ZONE-5",
        "sourceFeatureName": "Zone 5"
      }
    }
  ]
}
